STARLINK-2022           
1 47643U 21012Z   23202.72227784  .00011087  00000+0  76204-3 0  9996
2 47643  53.0538  50.0625 0001181  76.5282 283.5838 15.06399014134754
